     2.11           N: GPS NAV DATA                         RINEX VERSION / TYPE
teqc  2019Feb25     CORS-ADM Account    20260506 21:45:01UTCPGM / RUN BY / DATE
Linux 2.4.21-27.ELsmp|Opteron|gcc|Linux 64|=+               COMMENT
     2.10           N: GPS NAV DATA                         COMMENT
rvacn.e(1404.07)                        2026-05-06T21:27 UTCCOMMENT
This file contains the validated broadcast navigation       COMMENT
messages from the following files:                          COMMENT
aaaa1260.26n, abmf126u.26n, albh126u.26n, alic126u.26n,     COMMENT
areq126u.26n, aruc126u.26n, baie126u.26n, bake126u.26n,     COMMENT
brew126u.26n, brst126u.26n, brux126u.26n, bshm126u.26n,     COMMENT
bucu126u.26n, cebr126u.26n, chpi126u.26n, chum126u.26n,     COMMENT
chur126u.26n, ckis126u.26n, coco126u.26n, cro1126u.26n,     COMMENT
darw126u.26n, dav1126u.26n, dgar126u.26n, dlf1126u.26n,     COMMENT
drao126u.26n, dubo126u.26n, ebre126u.26n, faa1126u.26n,     COMMENT
fair126u.26n, falk126u.26n, flin126u.26n, glps126u.26n,     COMMENT
glsv126u.26n, gode126u.26n, guam126u.26n, harb126u.26n,     COMMENT
hers126u.26n, hlfx126u.26n, hob2126u.26n, hofn126u.26n,     COMMENT
holb126u.26n, hrao126u.26n, iqal126u.26n, ista126u.26n,     COMMENT
joze126u.26n, jplm126u.26n, karr126u.26n, kat1126u.26n,     COMMENT
kiri126u.26n, kiru126u.26n, kokb126u.26n, koug126u.26n,     COMMENT
kour126u.26n, lmmf126u.26n, lpal126u.26n, m0se126u.26n,     COMMENT
mac1126u.26n, maju126u.26n, mal2126u.26n, mar6126u.26n,     COMMENT
mas1126u.26n, mat1126u.26n, mate126u.26n, maw1126u.26n,     COMMENT
mcm4126u.26n, mdo1126u.26n, medi126u.26n, met3126u.26n,     COMMENT
mkea126u.26n, mobs126u.26n, mro1126u.26n, nain126u.26n,     COMMENT
nano126u.26n, naur126u.26n, nico126u.26n, nklg126u.26n,     COMMENT
nlib126u.26n, nnor126u.26n, not1126u.26n, nrc1126u.26n,     COMMENT
onsa126u.26n, orid126u.26n, palm126u.26n, pert126u.26n,     COMMENT
picl126u.26n, pie1126u.26n, pimo126u.26n, pohn126u.26n,     COMMENT
prds126u.26n, ptvl126u.26n, qaq1126u.26n, qiki126u.26n,     COMMENT
reso126u.26n, reun126u.26n, reyk126u.26n, riga126u.26n,     COMMENT
sant126u.26n, sask126u.26n, sch2126u.26n, scor126u.26n,     COMMENT
solo126u.26n, stj3126u.26n, stjo126u.26n, stpm126u.26n,     COMMENT
suth126u.26n, suwn126u.26n, sydn126u.26n, thtg126u.26n,     COMMENT
thu2126u.26n, tid1126u.26n, tow2126u.26n, tuva126u.26n,     COMMENT
unbj126u.26n, usud126u.26n, vacs126u.26n, vald126u.26n,     COMMENT
vill126u.26n, vis0126u.26n, warn126u.26n, whit126u.26n,     COMMENT
will126u.26n, wsrt126u.26n, wtzr126u.26n, xmis126u.26n,     COMMENT
yar2126u.26n, yarr126u.26n, yebe126u.26n, yell126u.26n,     COMMENT
zim2126u.26n, zimm126u.26n                                  COMMENT
    1.6764D-08  2.2352D-08 -1.1921D-07 -1.1921D-07          ION ALPHA
    1.1059D+05  9.8304D+04 -1.3107D+05 -1.9661D+05          ION BETA
    0.000000000000D+00 0.000000000000D+00   503808     2417 DELTA-UTC: A0,A1,T,W
                                                            END OF HEADER
12 26  5  6  8  0  0.0-6.077969446778D-04 1.136868377216D-13 0.000000000000D+00
    4.800000000000D+01 8.562500000000D+00 4.609477717535D-09 2.161474822948D+00
    2.756714820862D-07 8.839063229971D-03 7.955357432365D-06 5.153737524033D+03
    2.880000000000D+05 4.656612873077D-08-9.024490447965D-02-1.154839992523D-07
    9.592743464727D-01 2.191250000000D+02 1.577139241151D+00-7.769252191967D-09
   -4.943063041274D-10 1.000000000000D+00 2.417000000000D+03 0.000000000000D+00
    2.000000000000D+00 0.000000000000D+00-1.257285475731D-08 4.800000000000D+01
    2.823720000000D+05 4.000000000000D+00
13 26  5  6  8  0  0.0 2.796589396894D-04 2.876276994357D-11 0.000000000000D+00
    1.800000000000D+01 5.906250000000D+00 4.693766942805D-09-9.445181478178D-01
    2.384185791016D-07 2.090127673000D-04 7.811933755875D-06 5.153616298676D+03
    2.880000000000D+05-8.754432201385D-08-1.988009087872D-01-4.097819328308D-08
    9.596668152092D-01 2.257500000000D+02-1.569476997051D+00-7.938544957976D-09
   -4.303750697063D-10 1.000000000000D+00 2.417000000000D+03 0.000000000000D+00
    4.000000000000D+00 6.300000000000D+01-8.381903171539D-09 1.800000000000D+01
    2.808180000000D+05 4.000000000000D+00
14 26  5  6  8  0  0.0 7.455069571733D-04 1.136868377216D-12 0.000000000000D+00
    2.030000000000D+02 5.250000000000D+00 5.134499586803D-09 2.034421401566D+00
    3.259629011154D-07 7.064117933623D-03 8.016824722290D-06 5.153656608582D+03
    2.880000000000D+05-2.086162567139D-07-1.458738317506D-01 8.754432201385D-08
    9.425735317767D-01 2.181875000000D+02-2.715721720116D+00-8.153196756228D-09
   -3.982308736286D-10 1.000000000000D+00 2.417000000000D+03 0.000000000000D+00
    2.800000000000D+00 0.000000000000D+00-8.381903171539D-09 9.710000000000D+02
    2.808180000000D+05 4.000000000000D+00
15 26  5  6  8  0  0.0 4.091975279152D-04 3.296918293927D-12 0.000000000000D+00
    5.100000000000D+01-6.040625000000D+01 4.664480008601D-09-1.601243010884D+00
   -2.747401595116D-06 1.670864864718D-02 8.631497621536D-06 5.153727012634D+03
    2.880000000000D+05 1.322478055954D-07-2.427078961261D+00 4.079192876816D-07
    9.436368801152D-01 1.989687500000D+02 1.513915818979D+00-7.978903781941D-09
    3.153702792951D-10 1.000000000000D+00 2.417000000000D+03 0.000000000000D+00
    2.000000000000D+00 0.000000000000D+00-1.117587089539D-08 5.100000000000D+01
    2.808180000000D+05 4.000000000000D+00
16 26  5  6  8  0  0.0 2.580126747489D-04 6.934897101019D-12 0.000000000000D+00
    6.600000000000D+01 1.137500000000D+01 4.815200572432D-09 4.490618569545D-01
    8.810311555862D-07 1.500073098578D-02 8.244067430496D-06 5.153674636841D+03
    2.880000000000D+05-1.043081283569D-07-7.338259386816D-02 1.378357410431D-07
    9.583833254952D-01 2.199687500000D+02 9.333387882554D-01-8.172126116141D-09
   -5.518086993329D-10 1.000000000000D+00 2.417000000000D+03 0.000000000000D+00
    2.800000000000D+00 0.000000000000D+00-1.071020960808D-08 6.600000000000D+01
    2.808180000000D+05 4.000000000000D+00
17 26  5  6  8  0  0.0-1.289397478104D-04-8.412825991400D-12 0.000000000000D+00
    1.400000000000D+01 9.031250000000D+01 4.476257882680D-09-6.294177752625D-01
    4.731118679047D-06 1.259701105300D-02 8.311122655869D-06 5.153634265900D+03
    2.880000000000D+05-1.955777406693D-07 9.426890364737D-01-7.450580596924D-09
    9.584805744375D-01 2.221562500000D+02-1.110625574653D+00-8.138553289126D-09
   -1.110760553350D-10 1.000000000000D+00 2.417000000000D+03 0.000000000000D+00
    2.000000000000D+00 0.000000000000D+00-1.117587089539D-08 1.400000000000D+01
    2.808180000000D+05 4.000000000000D+00
18 26  5  6  8  0  0.0-3.593834117055D-04 9.322320693173D-12 0.000000000000D+00
    8.000000000000D+00 4.537500000000D+01 4.234462096629D-09-2.606878515731D+00
    2.341344952583D-06 5.924523808062D-03 2.335757017136D-06 5.153627389908D+03
    2.880000000000D+05-1.862645149231D-09 1.954403558422D+00-1.676380634308D-08
    9.710971529972D-01 3.411875000000D+02-2.874964977328D+00-8.037120492614D-09
    6.214544575012D-11 1.000000000000D+00 2.417000000000D+03 0.000000000000D+00
    2.000000000000D+00 0.000000000000D+00-8.381903171539D-09 2.640000000000D+02
    2.817480000000D+05 4.000000000000D+00
19 26  5  6  8  0  0.0 6.990563124418D-04 1.023181539495D-12 0.000000000000D+00
    2.900000000000D+01 9.031250000000D+01 4.482686721895D-09 1.106345607392D+00
    4.816800355911D-06 1.144257734995D-02 7.301568984985D-06 5.153740335464D+03
    2.880000000000D+05 1.359730958939D-07 9.865307690349D-01 2.160668373108D-07
    9.576145064537D-01 2.333437500000D+02 2.967530045012D+00-7.972117784991D-09
   -3.042983895351D-10 1.000000000000D+00 2.417000000000D+03 0.000000000000D+00
    2.000000000000D+00 0.000000000000D+00-1.536682248116D-08 2.900000000000D+01
    2.808180000000D+05 4.000000000000D+00
20 26  5  6  8  0  0.0 1.418287865818D-04 1.739408617141D-11 0.000000000000D+00
    3.900000000000D+01-5.856250000000D+01 4.293393122771D-09 2.050060019240D+00
   -3.032386302948D-06 2.103885868564D-03 8.622184395790D-06 5.153604516983D+03
    2.880000000000D+05 3.166496753693D-08-2.276233659891D+00-6.519258022308D-08
    9.609271732624D-01 2.137812500000D+02-1.866912199312D+00-7.806039438590D-09
    3.807301446530D-10 1.000000000000D+00 2.417000000000D+03 0.000000000000D+00
    2.000000000000D+00 0.000000000000D+00-8.847564458847D-09 3.900000000000D+01
    2.808180000000D+05 4.000000000000D+00
21 26  5  6  8  0  0.0 4.148930311203D-04-4.547473508865D-13 0.000000000000D+00
    2.080000000000D+02-8.271875000000D+01 4.218032840856D-09 1.733462383678D+00
   -4.252418875694D-06 7.676513632759D-04 4.706904292107D-06 5.153549652100D+03
    2.880000000000D+05-1.676380634308D-08 3.001767935432D+00-2.048909664154D-08
    9.638163091951D-01 2.898437500000D+02-1.783393281603D-01-8.020691236841D-09
   -4.428755904031D-11 1.000000000000D+00 2.417000000000D+03 0.000000000000D+00
    2.000000000000D+00 0.000000000000D+00-9.778887033463D-09 4.640000000000D+02
    2.808180000000D+05 4.000000000000D+00
22 26  5  6  8  0  0.0-6.983987987041D-06 6.480149750132D-12 0.000000000000D+00
    4.600000000000D+01 8.656250000000D+00 4.856988027333D-09 1.418830994863D-02
    4.582107067108D-07 1.194691238925D-02 8.212402462959D-06 5.153722730637D+03
    2.880000000000D+05-5.960464477539D-08-7.001921500421D-02-1.192092895508D-07
    9.578406648112D-01 2.236562500000D+02-9.944360477158D-01-8.203198839016D-09
   -3.850160374634D-10 1.000000000000D+00 2.417000000000D+03 0.000000000000D+00
    2.000000000000D+00 0.000000000000D+00-1.117587089539D-08 4.600000000000D+01
    2.808180000000D+05 4.000000000000D+00
